     2.11           N: GPS NAV DATA                         RINEX VERSION / TYPE
teqc  2019Feb25                         20221121 12:23:50UTCPGM / RUN BY / DATE
OSX ker:10.11.6|Core i5|gcc 4.3 -m64|OSX ker:10.10+|=+      COMMENT
    6.5193D-09  2.2352D-08 -5.9605D-08 -1.1921D-07          ION ALPHA
    8.6016D+04  9.8304D+04 -6.5536D+04 -5.2429D+05          ION BETA
    5.587935447693D-09 1.598721155460D-14   503808     1534 DELTA-UTC: A0,A1,T,W
                                                            END OF HEADER
16 09  6  4  0  0  0.0 4.518218338490D-05-3.410605131648D-12 0.000000000000D+00
    1.010000000000D+02 1.025000000000D+01 4.765198489644D-09 2.657175671290D+00
    6.966292858124D-07 5.354649270885D-03 7.145106792450D-06 5.153550430298D+03
    3.456000000000D+05-6.891787052155D-08-2.594653737354D+00 1.564621925354D-07
    9.685978247530D-01 2.477187500000D+02-3.496271863700D-01-7.972832100459D-09
    3.739441477033D-10 1.000000000000D+00 1.534000000000D+03 0.000000000000D+00
    2.000000000000D+00 0.000000000000D+00-9.778887033463D-09 1.010000000000D+02
    3.384180000000D+05 4.000000000000D+00
23 09  6  4  0  0  0.0 3.901785239577D-04 0.000000000000D+00 0.000000000000D+00
    2.700000000000D+01-8.425000000000D+01 4.410540859587D-09 3.915048650977D-01
   -4.317611455917D-06 6.151180248708D-03 3.304332494736D-06 5.153606758118D+03
    3.456000000000D+05 1.210719347000D-07 1.577800737597D+00-9.313225746155D-09
    9.701180570368D-01 3.205625000000D+02 2.885994427286D+00-8.324989626377D-09
   -9.107522222000D-11 1.000000000000D+00 1.534000000000D+03 0.000000000000D+00
    2.000000000000D+00 0.000000000000D+00-2.002343535423D-08 2.700000000000D+01
    3.384180000000D+05 4.000000000000D+00
29 09  6  4  0  0  0.0 2.665678039193D-05 3.637978807092D-12 0.000000000000D+00
    1.000000000000D+02-1.721875000000D+01 4.694124100539D-09-2.154596280155D+00
   -1.037493348122D-06 3.426773590036D-03 7.346272468567D-06 5.153668268204D+03
    3.456000000000D+05 2.048909664154D-08-1.543979072240D+00 9.499490261078D-08
    9.595005106819D-01 2.364062500000D+02-1.317627505640D+00-7.961760210699D-09
   -5.168072413817D-10 1.000000000000D+00 1.534000000000D+03 0.000000000000D+00
    2.800000000000D+00 0.000000000000D+00-8.847564458847D-09 1.000000000000D+02
    3.384180000000D+05 4.000000000000D+00
31 09  6  4  0  0  0.0-6.164051592350D-05-7.958078640513D-13 0.000000000000D+00
    7.800000000000D+01-6.337500000000D+01 4.166244969397D-09-1.366152694360D+00
   -3.295019268990D-06 7.039733347483D-03 1.114606857300D-05 5.153729001999D+03
    3.456000000000D+05-1.974403858185D-07 2.617880996794D+00 2.793967723846D-08
    9.730950294967D-01 1.759687500000D+02-1.139725001893D+00-7.813539751008D-09
    3.010839699273D-10 1.000000000000D+00 1.534000000000D+03 0.000000000000D+00
    2.800000000000D+00 0.000000000000D+00-1.303851604462D-08 7.800000000000D+01
    3.384180000000D+05 4.000000000000D+00
13 09  6  4  0  0  0.0 2.986369654536D-04 9.094947017729D-13 0.000000000000D+00
    5.900000000000D+01-8.906250000000D+01 3.812301654809D-09 1.136884914677D+00
   -4.621222615242D-06 4.156724666245D-03 4.015862941742D-06 5.153701654434D+03
    3.456000000000D+05-9.313225746155D-09 1.630024383641D+00-4.656612873077D-08
    9.946225141800D-01 3.180625000000D+02 1.580992260159D+00-7.978546624206D-09
   -1.110760553350D-10 1.000000000000D+00 1.534000000000D+03 0.000000000000D+00
    2.000000000000D+00 0.000000000000D+00-1.117587089539D-08 5.900000000000D+01
    3.384180000000D+05 4.000000000000D+00
25 09  6  4  0  0  0.0 4.454459995031D-04 1.853095454862D-11 0.000000000000D+00
    7.000000000000D+01-8.706250000000D+01 4.069455223430D-09-3.023068679516D+00
   -4.438683390617D-06 1.139022724237D-02 1.040287315845D-05 5.153656358719D+03
    3.456000000000D+05 1.378357410431D-07 2.525507037414D+00 2.291053533554D-07
    9.699191411397D-01 1.784687500000D+02-1.207635026960D+00-7.594244902211D-09
    2.439387324559D-10 1.000000000000D+00 1.534000000000D+03 0.000000000000D+00
    2.800000000000D+00 0.000000000000D+00-7.450580596924D-09 7.000000000000D+01
    3.384180000000D+05 4.000000000000D+00
 6 09  6  4  0  0  0.0 1.481869257987D-04 1.398348103976D-11 0.000000000000D+00
    7.000000000000D+01-2.037500000000D+01 5.470227856947D-09 2.625098567927D+00
   -8.717179298401D-07 5.996304680593D-03 6.383284926415D-06 5.153698678970D+03
    3.456000000000D+05 1.732259988785D-07-1.615679093805D+00-5.029141902924D-08
    9.333431784726D-01 2.356875000000D+02-1.353494762032D+00-8.370348658619D-09
   -5.507372261304D-10 1.000000000000D+00 1.534000000000D+03 0.000000000000D+00
    2.000000000000D+00 0.000000000000D+00-4.656612873077D-09 7.000000000000D+01
    3.384180000000D+05 4.000000000000D+00
21 09  6  4  0  0  0.0 1.035118475556D-05-2.160049916711D-12 0.000000000000D+00
    8.000000000000D+01 6.643750000000D+01 4.678052002500D-09-2.158370089463D+00
    3.226101398468D-06 1.532319898251D-02 1.007318496704D-05 5.153615791321D+03
    3.456000000000D+05 2.793967723846D-08-5.038848582669D-01-1.695007085800D-07
    9.342040633376D-01 1.715937500000D+02-2.597186809267D+00-7.856041521377D-09
   -8.428922527028D-11 1.000000000000D+00 1.534000000000D+03 0.000000000000D+00
    2.000000000000D+00 0.000000000000D+00-1.210719347000D-08 8.000000000000D+01
    3.384180000000D+05 4.000000000000D+00
24 09  6  4  0  0  0.0 1.940121874213D-04 2.955857780762D-12 0.000000000000D+00
    7.000000000000D+00 7.262500000000D+01 4.296250384645D-09 2.763916188409D+00
    3.769993782043D-06 6.699573830701D-03 1.041777431965D-05 5.153682022095D+03
    3.456000000000D+05-1.490116119385D-08-4.716436301246D-01 1.862645149231D-09
    9.508616093056D-01 1.766562500000D+02-6.496912143840D-01-7.732107787611D-09
   -3.217991185107D-10 1.000000000000D+00 1.534000000000D+03 0.000000000000D+00
    2.000000000000D+00 0.000000000000D+00-1.396983861923D-09 7.000000000000D+00
    3.384180000000D+05 4.000000000000D+00
 7 09  6  4  0  0  0.0 1.770770177245D-05-6.821210263297D-13 0.000000000000D+00
    6.300000000000D+01-6.959375000000D+01 4.255177245212D-09-1.187142815755D+00
   -3.760680556297D-06 2.622260944918D-03 1.034140586853D-05 5.153670675278D+03
    3.456000000000D+05 7.264316082001D-08 2.619965303957D+00 3.725290298462D-09
    9.677245694527D-01 1.836562500000D+02 2.878606225778D+00-7.821397221160D-09
    3.007268121931D-10 1.000000000000D+00 1.534000000000D+03 0.000000000000D+00
    2.000000000000D+00 0.000000000000D+00-1.071020960808D-08 6.300000000000D+01
    3.393960000000D+05 4.000000000000D+00
 3 09  6  4  0  0  0.0 4.018717445433D-04 5.115907697473D-12 0.000000000000D+00
    9.700000000000D+01-1.818750000000D+01 5.787383924913D-09 1.807872684811D-01
   -7.227063179016D-07 1.189070951659D-02 6.018206477165D-06 5.153625869751D+03
    3.456000000000D+05-2.793967723846D-08-1.683360988502D+00 1.471489667892D-07
    9.258735304632D-01 2.413125000000D+02 9.021399111884D-01-8.787508892160D-09
   -5.082354557610D-10 1.000000000000D+00 1.534000000000D+03 0.000000000000D+00
    2.800000000000D+00 0.000000000000D+00-4.190951585770D-09 9.700000000000D+01
    3.394320000000D+05 4.000000000000D+00
19 09  6  4  0  0  0.0 2.365838736296D-05-1.250555214938D-12 0.000000000000D+00
    4.200000000000D+01-2.293750000000D+01 4.868417074827D-09 9.313040096473D-01
   -1.264736056328D-06 5.638707196340D-03 7.035210728645D-06 5.153605762482D+03
    3.456000000000D+05 1.247972249985D-07-1.496125267828D+00-1.862645149231D-09
    9.569917422273D-01 2.348125000000D+02-3.565754284321D-01-8.127481399366D-09
   -6.450268679581D-10 1.000000000000D+00 1.534000000000D+03 0.000000000000D+00
    2.000000000000D+00 0.000000000000D+00-1.443549990654D-08 4.200000000000D+01
    3.428160000000D+05 4.000000000000D+00
 8 09  6  4  0  0  0.0-2.061622217298D-04-1.818989403546D-12 0.000000000000D+00
    9.600000000000D+01-6.612500000000D+01 3.799443976378D-09-1.913510107571D+00
   -3.626570105553D-06 1.060546585359D-02 1.084804534912D-05 5.153649213791D+03
    3.456000000000D+05-7.823109626770D-08 2.680459166763D+00-2.179294824600D-07
    9.889592642487D-01 1.901875000000D+02 2.992647385833D+00-7.542457030753D-09
    3.568005764619D-10 1.000000000000D+00 1.534000000000D+03 0.000000000000D+00
    2.800000000000D+00 0.000000000000D+00-3.725290298462D-09 9.600000000000D+01
    3.442260000000D+05 4.000000000000D+00
